ISS
1 25544U 98067A   26234.50053383  .00009133  00000-0  17025-3 0  9998
2 25544  51.6331 331.8814 0007668  72.6488 287.5339 15.49570248582031
CSS (TIANHE)
1 48274U 21035A   26234.46683157  .00014340  00000-0  18184-3 0  9990
2 48274  41.4688 279.6646 0001557 255.0784 104.9883 15.59157790303511
HST
1 20580U 90037B   26234.62763700  .00005984  00000+0  18408-3 0  9991
2 20580  28.4738 346.2416 0002063 150.3073 209.7640 15.31421310798761
NOAA 15
1 25338U 98030A   26234.57943037  .00000088  00000-0  53656-4 0  9991
2 25338  98.5067 253.4167 0010886 147.2652 212.9206 14.27163329470760
NOAA 18
1 28654U 05018A   26234.57894345  .00000030  00000-0  38839-4 0  9999
2 28654  98.8080 313.2824 0013535 325.9698  34.0605 14.13739644 95691
NOAA 19
1 33591U 09005A   26234.58969731  .00000005  00000-0  26610-4 0  9994
2 33591  98.9474 305.4971 0013475 198.3441 161.7247 14.13482941903864
NOAA 20
1 43013U 17073A   26234.61070757  .00000025  00000-0  32756-4 0  9993
2 43013  98.7787 173.4885 0002002  78.5172 281.6229 14.19522210453895
NOAA 21
1 54234U 22150A   26234.57190393  .00000035  00000-0  37274-4 0  9997
2 54234  98.7072 172.2487 0002302  36.2981 323.8351 14.19546136195965
TERRA
1 25994U 99068A   26234.60019697  .00000275  00000-0  64813-4 0  9996
2 25994  97.9406 281.4964 0003022  47.3925 112.8934 14.61146993419306
AQUA
1 27424U 02022A   26234.66015816  .00000614  00000-0  13188-3 0  9990
2 27424  98.4347 205.2938 0001811  85.9128  87.8197 14.62173921292985
LANDSAT 8
1 39084U 13008A   26234.63457349  .00000228  00000-0  60751-4 0  9999
2 39084  98.2253 303.9635 0001267  93.6891 266.4453 14.57103760707576
LANDSAT 9
1 49260U 21088A   26234.60027704  .00000249  00000-0  65257-4 0  9997
2 49260  98.2234 303.9571 0001288 105.3989 254.7352 14.57099128260678
SENTINEL-3A
1 41335U 16011A   26234.62951573  .00000054  00000+0  40348-4 0  9991
2 41335  98.6200 301.0418 0000982  92.9996 267.1297 14.26738854547539
SENTINEL-3B
1 43437U 18039A   26234.18187506  .00000064  00000+0  44591-4 0  9991
2 43437  98.6200 300.7504 0001666  96.1869 263.9501 14.26738845433537
SENTINEL-2A
1 40697U 15028A   26234.64824256  .00001698  00000+0  66441-3 0  9993
2 40697  98.5642 308.5426 0001446  83.6589 276.4758 14.30817207583237
SENTINEL-2B
1 42063U 17013A   26234.64103508 -.00000054  00000+0 -39918-5 0  9996
2 42063  98.5650 308.4637 0001259  87.8936 272.2392 14.30814937494148
METEOR-M
1 35865U 09049A   26234.37373174  .00000059  00000-0  45841-4 0  9991
2 35865  98.7452 196.3909 0003243 106.9475 253.2058 14.23169083878662
METEOR-M2
1 40069U 14037A   26234.59340260 -.00000168  00000-0 -57627-4 0  9998
2 40069  98.5187 208.0017 0005183 192.4620 167.6431 14.21477383628754
SUOMI NPP
1 37849U 11061A   26234.59717479  .00000048  00000-0  43760-4 0  9992
2 37849  98.7973 175.0262 0002608 115.4235 244.7211 14.19529045767861
METOP-C
1 43689U 18087A   26234.58419927  .00000048  00000-0  41553-4 0  9990
2 43689  98.6591 292.9552 0001117  49.6580 310.4695 14.21510699404268
CALIPSO
1 29108U 06016B   26234.55366628  .00000716  00000-0  12986-3 0  9994
2 29108  98.4477 252.4849 0001821  86.4393 273.7019 14.69456212 82807
JASON-3
1 41240U 16002A   26234.64351578 -.00000043  00000-0  77213-4 0  9998
2 41240  66.0446 346.1162 0008296 267.4347  92.5722 12.87626358495801
AO-07
1  7530U 74089B   26234.28416044 -.00000040  00000-0  40168-4 0  9997
2  7530 101.9920 248.2218 0012281   7.0849   4.1233 12.53699135368800
SO-50
1 27607U 02058C   26234.57332067  .00000803  00000-0  11205-3 0  9990
2 27607  64.5514 283.5686 0073205 250.3023 109.0175 14.83170784274301
FO-29
1 24278U 96046B   26234.40663799 -.00000007  00000-0  31628-4 0  9991
2 24278  98.5190  74.2016 0348821 284.6486  71.6229 13.53276938482122
AO-73
1 39444U 13066AE  26234.39424342  .00007307  00000-0  44367-3 0  9992
2 39444  97.8341 207.2830 0035042 341.5467  18.4488 15.10305741689658
ENVISAT
1 27386U 02009A   26234.15339546  .00000061  00000+0  33497-4 0  9996
2 27386  98.3880 184.0155 0001161  85.4324 285.3594 14.39077676282977
SENTINEL-5P
1 42969U 17064A   26234.24703335  .00000033  00000+0  36640-4 0  9990
2 42969  98.7949 175.9157 0001293  82.5161 277.6162 14.19528331458938
METEOR-M2-2
1 44387U 19038A   26234.62692980 -.00000121  00000+0 -32418-4 0  9993
2 44387  98.9212 222.9118 0001441 135.9428 224.1865 14.24380222370754
